EUTELSAT QUANTUM        
1 49056U 21069B   26002.18629653  .00000135  00000+0  00000+0 0  9999
2 49056   0.0131  27.7707 0003772 258.7514 290.0645  1.00270254 16264
EUTELSAT KONNECT VHTS   
1 53765U 22110A   26002.24878359  .00000025  00000+0  00000+0 0  9993
2 53765   0.0570  97.4958 0002865 151.3058 305.3514  1.00272094  5175
EUTELSAT HOTBIRD 13F    
1 54048U 22134A   26002.10812271  .00000095  00000+0  00000+0 0  9997
2 54048   0.0553 290.8770 0002237  63.9493 158.8222  1.00269839 11713
EUTELSAT HOTBIRD 13G    
1 54225U 22146A   26002.10812271  .00000095  00000+0  00000+0 0  9997
2 54225   0.0628 223.9658 0001899 319.6076 330.0801  1.00268492  5800
EUTELSAT 10B            
1 54259U 22157A   26002.02266749  .00000077  00000+0  00000+0 0  9990
2 54259   0.0609  94.5455 0000930 104.8597 280.4032  1.00267327 11368
EUTELSAT 36D            
1 59346U 24059A   26002.18395652  .00000000  00000+0  00000+0 0  9994
2 59346   0.0292  42.5472 0000488 260.1896 261.2016  1.00269883  6481
